[Satellite]
VERSION=1.1
NAME=CZ-6A DEB
NICKNAME=CZ-6A DEB
TLE1=1 54320U 22151BP  22342.46317560  .00000383  00000+0  31307-3 0  9990
TLE2=2 54320  98.8417 346.3968 0136279 343.3196  16.3504 13.91186471  3136
STATUS=0
